SKYNET 5B               
1 32294U 07056B   17220.60327022  .00000133  00000-0  00000-0 0  9999
2 32294   0.0691  18.6354 0003431 122.2442  58.6712  1.00273900 35787
ASTRA 4A (SIRIUS 4)     
1 32299U 07057A   17221.10601696  .00000023  00000-0  00000-0 0  9991
2 32299   0.0337 278.6771 0002779 211.7465 230.3353  1.00273276 19275
HORIZONS-2              
1 32388U 07063B   17220.91278856 -.00000191  00000-0  00000-0 0  9990
2 32388   0.0132  80.8069 0003123  60.8821 229.3595  1.00268078 35428
THURAYA-3               
1 32404U 08001A   17220.90295476 -.00000305  00000-0  00000-0 0  9995
2 32404   4.0337 354.2849 0004829 140.3114 246.5487  1.00270394 35093
EXPRESS-AM33            
1 32478U 08003A   17220.63538890 -.00000290  00000-0  00000-0 0  9991
2 32478   0.0435 256.1741 0000702   6.9986  19.3607  1.00269642 35173
THOR 5                  
1 32487U 08006A   17221.10257455 -.00000019  00000-0  00000-0 0  9991
2 32487   0.0328 264.7671 0002602 234.9585 214.2278  1.00272234 34877
KIZUNA (WINDS)          
1 32500U 08007A   17220.80396535 -.00000269  00000-0  00000-0 0  9994
2 32500   0.9416  90.1086 0002573  47.0313 252.7680  1.00271513 34604
AMC-14                  
1 32708U 08011A   17220.71943222  .00000087  00000-0  00000-0 0  9997
2 32708  19.2103  62.0516 0037969   2.4684 169.8791  1.00274987 35722
DIRECTV 11              
1 32729U 08013A   17220.39146351 -.00000135  00000-0  00000-0 0  9999
2 32729   0.0012 220.5467 0000532 331.3954 166.8945  1.00272247 13178
ICO G1                  
1 32763U 08016A   17221.06116292 -.00000175  00000-0  00000-0 0  9990
2 32763   3.8163 355.6396 0002365 149.4123 101.8536  1.00272035 34158
VINASAT-1               
1 32767U 08018A   17220.75177406 -.00000338  00000-0  00000-0 0  9996
2 32767   0.0134  50.7306 0001998 101.3215 207.9587  1.00268804 34178
STAR ONE C2             
1 32768U 08018B   17220.31392066 -.00000274  00000-0  00000-0 0  9999
2 32768   0.0486 246.1039 0002532 262.6002 211.3062  1.00275165 34112
TIANLIAN 1-01           
1 32779U 08019A   17221.05283832 -.00000149  00000-0  10000-3 0  9999
2 32779   2.9031  75.8616 0031333 230.0218 110.8907  1.00274482 34031
AMOS-3                  
1 32794U 08022A   17221.07059885 -.00000045  00000-0  00000-0 0  9992
2 32794   0.0566 263.1802 0001807 239.1953 196.6779  1.00271262 49946
GALAXY 18 (G-18)        
1 32951U 08024A   17220.46074745  .00000016  00000-0  00000-0 0  9990
2 32951   0.0116 120.1000 0003316  22.7810 217.1420  1.00271291 33654
CHINASAT 9 (ZX 9)       
1 33051U 08028A   17220.63865600 -.00000257  00000-0  00000-0 0  9991
2 33051   0.0096  60.8470 0003836  68.5635 150.0288  1.00271549 33578
SKYNET 5C               
1 33055U 08030A   17221.13860094 -.00000149  00000-0  00000-0 0  9996
2 33055   0.0603   6.8219 0004031 146.2499 196.8394  1.00271322 33471
TURKSAT 3A              
1 33056U 08030B   17221.06081696  .00000136  00000-0  00000-0 0  9997
2 33056   0.0349  84.9122 0005344  44.1978 252.5071  1.00271490 19927
INTELSAT 25 (IS-25)     
1 33153U 08034A   17221.20466568 -.00000234  00000-0  00000-0 0  9990
2 33153   0.0103 245.6430 0002839 243.9259 230.4562  1.00266952 33314
BADR-6                  
1 33154U 08034B   17221.11660028  .00000135  00000-0  00000-0 0  9997
2 33154   0.0578  45.5807 0004500  63.2372 276.9396  1.00271650 33324
ECHOSTAR 11             
1 33207U 08035A   17220.42475942 -.00000065  00000-0  00000-0 0  9992
2 33207   0.0170 275.0028 0003074 229.8348 215.1827  1.00269850 18814
SUPERBIRD-C2            
1 33274U 08038A   17220.61034277 -.00000261  00000-0  00000-0 0  9990
2 33274   0.0131  90.6536 0002222  84.2492 146.0227  1.00269263 73294
AMC-21                  
1 33275U 08038B   17220.41021561  .00000027  00000-0  00000-0 0  9990
2 33275   0.0356 284.4415 0002731 224.5449 190.8779  1.00272914 33022
INMARSAT 4-F3           
1 33278U 08039A   17220.32923850 -.00000146  00000-0  00000-0 0  9999
2 33278   3.0230   1.9516 0002741 141.6499 193.9497  1.00271903 32823
NIMIQ 4                 
1 33373U 08044A   17221.10948719 -.00000229  00000-0  00000-0 0  9991
2 33373   0.0130  73.9311 0002179  73.6436 127.5961  1.00270307 32542
GALAXY 19 (G-19)        
1 33376U 08045A   17220.38875952 -.00000148  00000-0  00000-0 0  9992
2 33376   0.0125 108.1935 0003280  36.7797 215.0437  1.00270916 32510
VENESAT-1               
1 33414U 08055A   17220.34354809 -.00000247  00000-0  00000-0 0  9995
2 33414   0.0120 104.1734 0001557  77.1996 181.2938  1.00272134 32116
ASTRA 1M                
1 33436U 08057A   17220.94979844  .00000110  00000-0  00000-0 0  9997
2 33436   0.0165  87.7628 0005922  53.6593 177.3391  1.00273485 13319
CIEL-2                  
1 33453U 08063A   17220.81732532  .00000049  00000-0  00000-0 0  9991
2 33453   0.0181 282.7801 0003260 223.8894 336.2187  1.00270849 31729
EUTELSAT HOT BIRD 13C   
1 33459U 08065A   17221.08136074  .00000077  00000-0  00000-0 0  9999
2 33459   0.0705  51.7041 0004763  76.9535 231.3812  1.00271624 14942
EUTELSAT 48D            
1 33460U 08065B   17221.11078194  .00000114  00000-0  00000-0 0  9995
2 33460   0.0756 310.2673 0002428 204.1183 251.3522  1.00272766 31592
FENGYUN 2E              
1 33463U 08066A   17220.91117294 -.00000209  00000-0  00000-0 0  9997
2 33463   2.2772  67.3376 0004278 206.6600  98.1319  1.00266810 31654
EXPRESS-AM44            
1 33595U 09007A   17221.13475081 -.00000098  00000-0  00000-0 0  9991
2 33595   0.0417 246.1165 0000507 307.7330 161.4859  1.00272611 31120
NSS-9                   
1 33749U 09008A   17221.23445396  .00000062  00000-0  00000-0 0  9990
2 33749   0.0451 288.2455 0002415 202.0873  95.0452  1.00272488 31096
EUTELSAT 33E            
1 33750U 09008B   17221.09841015  .00000146  00000-0  00000-0 0  9997
2 33750   0.0218 334.7562 0005581 197.7113 213.8593  1.00272838 31173
TELSTAR 11N             
1 34111U 09009A   17220.50743727 -.00000260  00000-0  00000-0 0  9994
2 34111   0.0172 101.9059 0002733  26.8083 333.6114  1.00270962 30987
EUTELSAT 10A            
1 34710U 09016A   17221.08528868  .00000059  00000-0  00000-0 0  9993
2 34710   0.0652 359.8051 0004664 144.3913 214.2651  1.00274264  8821
SES-7 (PROTOSTAR 2)     
1 34941U 09027A   17220.91490490 -.00000355  00000-0  00000-0 0  9991
2 34941   0.0100  59.1207 0001380 156.9103 179.1926  1.00272680 30201
MEASAT-3A               
1 35362U 09032A   17220.86369225 -.00000251  00000-0  00000-0 0  9995
2 35362   0.0545 246.9907 0002746 290.6552 182.3511  1.00271908 29819
GOES 14                 
1 35491U 09033A   17220.41013204 -.00000099  00000-0  00000-0 0  9993
2 35491   0.3634  99.3929 0006482 115.3993 145.1611  1.00269109 29729
SIRIUS FM-5             
1 35493U 09034A   17220.21087696 -.00000209  00000-0  00000-0 0  9993
2 35493   0.0165  83.0269 0000149 259.9431 323.7053  1.00268033 29538
TERRESTAR-1             
1 35496U 09035A   17220.38851555 -.00000061  00000-0  00000-0 0  9994
2 35496   2.8534 345.4821 0002883 159.3996 201.0472  1.00272562 29744
ASIASAT 5               
1 35696U 09042A   17220.80740536 -.00000317  00000-0  00000-0 0  9991
2 35696   0.0170 113.3155 0001511 341.3567 253.9974  1.00271643 29234
JCSAT-RA (JCSAT-12)     
1 35755U 09044A   17220.76285828 -.00000355  00000-0  00000-0 0  9994
2 35755   0.0371  45.5347 0001341  81.6238 232.8495  1.00271802 29187
OPTUS D3                
1 35756U 09044B   17221.30278368 -.00000157  00000-0  00000-0 0  9997
2 35756   0.0413 330.0613 0002879 155.7783  97.1535  1.00271947 29141
PALAPA D                
1 35812U 09046A   17220.80436049 -.00000368  00000-0  00000-0 0  9992
2 35812   0.0173  89.9250 0001904  64.4472 205.6330  1.00270192 29244
NIMIQ 5                 
1 35873U 09050A   17220.71782177 -.00000266  00000-0  00000-0 0  9997
2 35873   0.0674 273.4775 0002364 218.8942  10.7585  1.00273561 28932
AMAZONAS 2              
1 35942U 09054A   17221.20740399 -.00000292  00000-0  00000-0 0  9992
2 35942   0.0332 208.7762 0005707 292.5497 190.2126  1.00271698 28760
COMSATBW-1              
1 35943U 09054B   17221.08868792  .00000015  00000-0  00000-0 0  9999
2 35943   0.0443  83.8363 0002019  53.1991 275.6722  1.00271085 28878
NSS-12                  
1 36032U 09058A   17221.11047742  .00000061  00000-0  00000-0 0  9992
2 36032   0.0204 291.2096 0002547 198.7858 284.6011  1.00275471 28510
THOR 6                  
1 36033U 09058B   17221.10257455 -.00000019  00000-0  00000-0 0  9990
2 36033   0.0365 234.4203 0002160 278.8720 200.5651  1.00271827 28605
INTELSAT 14 (IS-14)     
1 36097U 09064A   17220.24467994 -.00000283  00000-0  00000-0 0  9995
2 36097   0.0152  76.0005 0002617  63.8701 220.1439  1.00271159 28269
EUTELSAT 36B            
1 36101U 09065A   17221.09841015  .00000146  00000-0  00000-0 0  9993
2 36101   0.0663  24.6528 0004686 117.1846 247.2884  1.00274785 28297
INTELSAT 15 (IS-15)     
1 36106U 09067A   17220.91278856 -.00000194  00000-0  00000-0 0  9991
2 36106   0.0138  82.7567 0002564  68.6782 219.9186  1.00268508  8878
DIRECTV 12              
1 36131U 09075A   17221.09067041 -.00000112  00000-0  00000-0 0  9990
2 36131   0.0335 264.2347 0000313 256.1770  87.2055  1.00271424 27951
BEIDOU G1               
1 36287U 10001A   17221.24744250 -.00000292  00000-0  00000-0 0  9993
2 36287   1.4765   3.2716 0003900 159.7731  24.0292  1.00273538 27743
RADUGA-1M 2             
1 36358U 10002A   17220.58806108 -.00000193  00000-0  00000-0 0  9990
2 36358   0.0470 256.8313 0002595 269.3284  87.8013  1.00271158 17674
SDO                     
1 36395U 10005A   17220.29420892 -.00000084  00000-0  00000-0 0  9993
2 36395  28.8206 139.5034 0000864  77.7736 103.5407  1.00269395 27626
INTELSAT 16 (IS-16)     
1 36397U 10006A   17221.20740399 -.00000294  00000-0  00000-0 0  9998
2 36397   0.0167  80.0567 0001860  64.2517 190.1364  1.00270846 27449
